QIANFAN-49              
1 62250U 24232P   25318.69569323  .00000226  00000+0  33100-3 0  9999
2 62250  89.0047  44.0598 0012336 274.4360  85.5381 13.50975441 64050
QIANFAN-50              
1 62251U 24232Q   25318.64631314  .00000253  00000+0  37286-3 0  9994
2 62251  89.0052  44.0713 0013985 276.3387  83.6172 13.50975971 64074
QIANFAN-51              
1 62252U 24232R   25318.70391391  .00000225  00000+0  32972-3 0  9996
2 62252  89.0046  44.0612 0011450 280.2051  79.7809 13.50973772 64073
QIANFAN-52              
1 62253U 24232S   25318.65867260  .00000232  00000+0  34063-3 0  9995
2 62253  89.0042  43.9404 0013512 271.7169  88.2434 13.50974814 64159
QIANFAN-53              
1 62254U 24232T   25318.71217611  .00000240  00000+0  35307-3 0  9993
2 62254  89.0049  44.0374 0012384 272.5795  87.3938 13.50986028 64121
QIANFAN-54              
1 62255U 24232U   25318.75331898  .00000234  00000+0  34480-3 0  9996
2 62255  89.0041  43.7142 0001005  21.4887 338.6306 13.50974929 95632
QIANFAN-55              
1 62785U 25016A   25318.77961932  .00000170  00000+0  24472-3 0  9994
2 62785  88.9756 106.0947 0018801  71.7983 288.5213 13.50979585 43416
QIANFAN-56              
1 62786U 25016B   25318.72184988  .00000152  00000+0  21714-3 0  9994
2 62786  88.9729 105.9447 0017479  74.3566 285.9512 13.50980249 43452
